start=new Date('2023-01-19T00:00:00.000Z').valueOf();
sats=[{"ELEMENT_SET_NO":"999","TIME_SYSTEM":"UTC","INCLINATION":"53.0525","APOAPSIS":"548.008","BSTAR":"0.00019468000000","OBJECT_TYPE":"PAYLOAD","CENTER_NAME":"EARTH","PERIAPSIS":"546.415","LAUNCH_DATE":"2020-08-07","SEMIMAJOR_AXIS":"6925.346","EPOCH":"2023-01-18T20:36:44.609760","TLE_LINE2":"2 46033  53.0525 230.4558 0001150  80.8157 279.2962 15.06400722136162","MEAN_ELEMENT_THEORY":"SGP4","ECCENTRICITY":"0.00011500","OBJECT_NAME":"STARLINK-1556","NORAD_CAT_ID":"46033","COUNTRY_CODE":"US","REV_AT_EPOCH":"13616","GP_ID":"223451151","RCS_SIZE":"LARGE","CLASSIFICATION_TYPE":"U","MEAN_MOTION_DDOT":"0.0000000000000","FILE":"3754254","ARG_OF_PERICENTER":"80.8157","RA_OF_ASC_NODE":"230.4558","EPHEMERIS_TYPE":"0","MEAN_MOTION_DOT":"0.00002620","REF_FRAME":"TEME","DECAY_DATE":null,"MEAN_MOTION":"15.06400722","TLE_LINE1":"1 46033U 20055G   23018.85884965  .00002620  00000-0  19468-3 0  9996","OBJECT_ID":"2020-055G","PERIOD":"95.592","SITE":"AFETR","MEAN_ANOMALY":"279.2962"},{"ECCENTRICITY":"0.00011530","TLE_LINE2":"2 46034  53.0535 230.4339 0001153  89.4641 270.6480 15.06385926136165","MEAN_ELEMENT_THEORY":"SGP4","NORAD_CAT_ID":"46034","OBJECT_NAME":"STARLINK-1557","COUNTRY_CODE":"US","CLASSIFICATION_TYPE":"U","GP_ID":"223451401","RCS_SIZE":"LARGE","REV_AT_EPOCH":"13616","LAUNCH_DATE":"2020-08-07","EPOCH":"2023-01-18T20:42:03.739392","SEMIMAJOR_AXIS":"6925.392","APOAPSIS":"548.055","CENTER_NAME":"EARTH","OBJECT_TYPE":"PAYLOAD","PERIAPSIS":"546.458","BSTAR":"-0.00017995000000","TIME_SYSTEM":"UTC","ELEMENT_SET_NO":"999","INCLINATION":"53.0535","PERIOD":"95.593","SITE":"AFETR","MEAN_ANOMALY":"270.6480","MEAN_MOTION":"15.06385926","REF_FRAME":"TEME","DECAY_DATE":null,"TLE_LINE1":"1 46034U 20055H   23018.86254328 -.00002960  00000-0 -17995-3 0  9994","OBJECT_ID":"2020-055H","RA_OF_ASC_NODE":"230.4339","EPHEMERIS_TYPE":"0","MEAN_MOTION_DOT":"-0.00002960","MEAN_MOTION_DDOT":"0.0000000000000","ARG_OF_PERICENTER":"89.4641","FILE":"3754254"},{"TIME_SYSTEM":"UTC","ELEMENT_SET_NO":"999","INCLINATION":"53.0541","APOAPSIS":"547.966","OBJECT_TYPE":"PAYLOAD","PERIAPSIS":"546.470","CENTER_NAME":"EARTH","BSTAR":"0.00015498000000","LAUNCH_DATE":"2020-08-07","SEMIMAJOR_AXIS":"6925.353","EPOCH":"2023-01-18T20:52:40.162656","ECCENTRICITY":"0.00010800","MEAN_ELEMENT_THEORY":"SGP4","TLE_LINE2":"2 46035  53.0541 230.3966 0001080  81.6238 278.4873 15.06398648135675","NORAD_CAT_ID":"46035","OBJECT_NAME":"STARLINK-1558","COUNTRY_CODE":"US","GP_ID":"223429784","RCS_SIZE":"LARGE","CLASSIFICATION_TYPE":"U","REV_AT_EPOCH":"13567","MEAN_MOTION_DDOT":"0.0000000000000","ARG_OF_PERICENTER":"81.6238","FILE":"3754125","EPHEMERIS_TYPE":"0","RA_OF_ASC_NODE":"230.3966","MEAN_MOTION_DOT":"0.00002028","MEAN_MOTION":"15.06398648","REF_FRAME":"TEME","DECAY_DATE":null,"TLE_LINE1":"1 46035U 20055J   23018.86990929  .00002028  00000-0  15498-3 0  9998","OBJECT_ID":"2020-055J","PERIOD":"95.592","SITE":"AFETR","MEAN_ANOMALY":"278.4873"},{"MEAN_MOTION_DOT":"0.00004765","EPHEMERIS_TYPE":"0","RA_OF_ASC_NODE":"230.4756","ARG_OF_PERICENTER":"79.0619","FILE":"3754254","MEAN_MOTION_DDOT":"0.0000000000000","MEAN_ANOMALY":"281.0508","SITE":"AFETR","PERIOD":"95.592","OBJECT_ID":"2020-055K","TLE_LINE1":"1 46036U 20055K   23018.85516906  .00004765  00000-0  33850-3 0  9999","MEAN_MOTION":"15.06403684","DECAY_DATE":null,"REF_FRAME":"TEME","OBJECT_TYPE":"PAYLOAD","PERIAPSIS":"546.348","CENTER_NAME":"EARTH","BSTAR":"0.00033850000000","APOAPSIS":"548.056","INCLINATION":"53.0505","TIME_SYSTEM":"UTC","ELEMENT_SET_NO":"999","CLASSIFICATION_TYPE":"U","GP_ID":"223452403","RCS_SIZE":"LARGE","REV_AT_EPOCH":"13619","COUNTRY_CODE":"US","OBJECT_NAME":"STARLINK-1560","NORAD_CAT_ID":"46036","ECCENTRICITY":"0.00012330","MEAN_ELEMENT_THEORY":"SGP4","TLE_LINE2":"2 46036  53.0505 230.4756 0001233  79.0619 281.0508 15.06403684136198","SEMIMAJOR_AXIS":"6925.337","EPOCH":"2023-01-18T20:31:26.606784","LAUNCH_DATE":"2020-08-07"},{"OBJECT_ID":"2020-055L","MEAN_MOTION":"15.06391979","REF_FRAME":"TEME","DECAY_DATE":null,"TLE_LINE1":"1 46037U 20055L   23018.85148249  .00002004  00000-0  15344-3 0  9993","SITE":"AFETR","MEAN_ANOMALY":"290.0935","PERIOD":"95.593","ARG_OF_PERICENTER":"70.0142","FILE":"3754254","MEAN_MOTION_DDOT":"0.0000000000000","MEAN_MOTION_DOT":"0.00002004","EPHEMERIS_TYPE":"0","RA_OF_ASC_NODE":"230.4932","SEMIMAJOR_AXIS":"6925.373","EPOCH":"2023-01-18T20:26:08.087136","LAUNCH_DATE":"2020-08-07","COUNTRY_CODE":"US","RCS_SIZE":"LARGE","GP_ID":"223451652","CLASSIFICATION_TYPE":"U","REV_AT_EPOCH":"13618","ECCENTRICITY":"0.00008100","TLE_LINE2":"2 46037  53.0529 230.4932 0000810  70.0142 290.0935 15.06391979136189","MEAN_ELEMENT_THEORY":"SGP4","NORAD_CAT_ID":"46037","OBJECT_NAME":"STARLINK-1565","TIME_SYSTEM":"UTC","ELEMENT_SET_NO":"999","INCLINATION":"53.0529","OBJECT_TYPE":"PAYLOAD","CENTER_NAME":"EARTH","PERIAPSIS":"546.677","BSTAR":"0.00015344000000","APOAPSIS":"547.799"},{"APOAPSIS":"548.007","CENTER_NAME":"EARTH","OBJECT_TYPE":"PAYLOAD","PERIAPSIS":"546.356","BSTAR":"0.00036709000000","INCLINATION":"53.0534","TIME_SYSTEM":"UTC","ELEMENT_SET_NO":"999","NORAD_CAT_ID":"46038","OBJECT_NAME":"STARLINK-1567","ECCENTRICITY":"0.00011920","TLE_LINE2":"2 46038  53.0534 230.4142 0001192  80.6168 279.4956 15.06410322136186","MEAN_ELEMENT_THEORY":"SGP4","GP_ID":"223451902","CLASSIFICATION_TYPE":"U","RCS_SIZE":"LARGE","REV_AT_EPOCH":"13618","COUNTRY_CODE":"US","LAUNCH_DATE":"2020-08-07","SEMIMAJOR_AXIS":"6925.317","EPOCH":"2023-01-18T20:47:21.650784","RA_OF_ASC_NODE":"230.4142","EPHEMERIS_TYPE":"0","MEAN_MOTION_DOT":"0.00005192","MEAN_MOTION_DDOT":"0.0000000000000","ARG_OF_PERICENTER":"80.6168","FILE":"3754254","PERIOD":"95.591","MEAN_ANOMALY":"279.4956","SITE":"AFETR","TLE_LINE1":"1 46038U 20055M   23018.86622281  .00005192  00000-0  36709-3 0  9997","MEAN_MOTION":"15.06410322","REF_FRAME":"TEME","DECAY_DATE":null,"OBJECT_ID":"2020-055M"},{"SITE":"AFETR","MEAN_ANOMALY":"262.1300","PERIOD":"95.592","OBJECT_ID":"2020-055N","MEAN_MOTION":"15.06405430","DECAY_DATE":null,"REF_FRAME":"TEME","TLE_LINE1":"1 46039U 20055N   23018.87359639  .00004006  00000-0  28763-3 0  9997","MEAN_MOTION_DOT":"0.00004006","RA_OF_ASC_NODE":"230.3799","EPHEMERIS_TYPE":"0","ARG_OF_PERICENTER":"97.9831","FILE":"3754129","MEAN_MOTION_DDOT":"0.0000000000000","COUNTRY_CODE":"US","CLASSIFICATION_TYPE":"U","GP_ID":"223429844","RCS_SIZE":"LARGE","REV_AT_EPOCH":"13567","ECCENTRICITY":"0.00012560","MEAN_ELEMENT_THEORY":"SGP4","TLE_LINE2":"2 46039  53.0539 230.3799 0001256  97.9831 262.1300 15.06405430135677","NORAD_CAT_ID":"46039","OBJECT_NAME":"STARLINK-1569","SEMIMAJOR_AXIS":"6925.332","EPOCH":"2023-01-18T20:57:58.728096","LAUNCH_DATE":"2020-08-07","CENTER_NAME":"EARTH","OBJECT_TYPE":"PAYLOAD","PERIAPSIS":"546.327","BSTAR":"0.00028763000000","APOAPSIS":"548.067","TIME_SYSTEM":"UTC","ELEMENT_SET_NO":"999","INCLINATION":"53.0539"},{"APOAPSIS":"548.074","PERIAPSIS":"546.325","OBJECT_TYPE":"PAYLOAD","CENTER_NAME":"EARTH","BSTAR":"0.00032002000000","INCLINATION":"53.0537","TIME_SYSTEM":"UTC","ELEMENT_SET_NO":"999","NORAD_CAT_ID":"46040","OBJECT_NAME":"STARLINK-1576","ECCENTRICITY":"0.00012630","MEAN_ELEMENT_THEORY":"SGP4","TLE_LINE2":"2 46040  53.0537 230.2530 0001263  82.1066 278.0066 15.06404563136158","GP_ID":"223452903","RCS_SIZE":"LARGE","CLASSIFICATION_TYPE":"U","REV_AT_EPOCH":"13615","COUNTRY_CODE":"US","LAUNCH_DATE":"2020-08-07","SEMIMAJOR_AXIS":"6925.335","EPOCH":"2023-01-18T21:40:26.659776","RA_OF_ASC_NODE":"230.2530","EPHEMERIS_TYPE":"0","MEAN_MOTION_DOT":"0.00004489","MEAN_MOTION_DDOT":"0.0000000000000","ARG_OF_PERICENTER":"82.1066","FILE":"3754254","PERIOD":"95.592","MEAN_ANOMALY":"278.0066","SITE":"AFETR","TLE_LINE1":"1 46040U 20055P   23018.90308634  .00004489  00000-0  32002-3 0  9998","MEAN_MOTION":"15.06404563","REF_FRAME":"TEME","DECAY_DATE":null,"OBJECT_ID":"2020-055P"},{"CENTER_NAME":"EARTH","OBJECT_TYPE":"PAYLOAD","PERIAPSIS":"546.209","BSTAR":"0.00116950000000","APOAPSIS":"548.109","INCLINATION":"53.0521","TIME_SYSTEM":"UTC","ELEMENT_SET_NO":"999","RCS_SIZE":"LARGE","GP_ID":"223451152","CLASSIFICATION_TYPE":"U","REV_AT_EPOCH":"13615","COUNTRY_CODE":"US","OBJECT_NAME":"STARLINK-1580","NORAD_CAT_ID":"46041","ECCENTRICITY":"0.00013720","TLE_LINE2":"2 46041  53.0521 230.5838 0001372  72.8965 287.2174 15.06417817136159","MEAN_ELEMENT_THEORY":"SGP4","SEMIMAJOR_AXIS":"6925.294","EPOCH":"2023-01-18T20:20:52.207872","LAUNCH_DATE":"2020-08-07","MEAN_MOTION_DOT":"0.00017189","EPHEMERIS_TYPE":"0","RA_OF_ASC_NODE":"230.5838","ARG_OF_PERICENTER":"72.8965","FILE":"3754254","MEAN_MOTION_DDOT":"0.0000000000000","MEAN_ANOMALY":"287.2174","SITE":"AFETR","PERIOD":"95.591","OBJECT_ID":"2020-055Q","TLE_LINE1":"1 46041U 20055Q   23018.84782648  .00017189  00000-0  11695-2 0  9998","MEAN_MOTION":"15.06417817","DECAY_DATE":null,"REF_FRAME":"TEME"},{"OBJECT_ID":"2020-055R","REF_FRAME":"TEME","DECAY_DATE":null,"MEAN_MOTION":"15.06406033","TLE_LINE1":"1 46042U 20055R   23018.88834141  .00004982  00000-0  35304-3 0  9990","SITE":"AFETR","MEAN_ANOMALY":"256.0509","PERIOD":"95.592","FILE":"3754254","ARG_OF_PERICENTER":"104.0599","MEAN_MOTION_DDOT":"0.0000000000000","MEAN_MOTION_DOT":"0.00004982","RA_OF_ASC_NODE":"230.3284","EPHEMERIS_TYPE":"0","SEMIMAJOR_AXIS":"6925.330","EPOCH":"2023-01-18T21:19:12.697824","LAUNCH_DATE":"2020-08-07","COUNTRY_CODE":"US","REV_AT_EPOCH":"13615","GP_ID":"223451402","RCS_SIZE":"LARGE","CLASSIFICATION_TYPE":"U","TLE_LINE2":"2 46042  53.0522 230.3284 0001071 104.0599 256.0509 15.06406033136155","MEAN_ELEMENT_THEORY":"SGP4","ECCENTRICITY":"0.00010710","OBJECT_NAME":"STARLINK-1581","NORAD_CAT_ID":"46042","ELEMENT_SET_NO":"999","TIME_SYSTEM":"UTC","INCLINATION":"53.0522","BSTAR":"0.00035304000000","CENTER_NAME":"EARTH","OBJECT_TYPE":"PAYLOAD","PERIAPSIS":"546.453","APOAPSIS":"547.937"}];
